start=new Date('2022-03-18T00:00:00.000Z').valueOf();
sats=[{"BSTAR":"0.00041632000000","ECCENTRICITY":"0.00014410","PERIAPSIS":"546.220","COUNTRY_CODE":"US","ARG_OF_PERICENTER":"66.7130","RA_OF_ASC_NODE":"213.8230","FILE":"3363151","MEAN_ANOMALY":"293.4011","MEAN_MOTION_DDOT":"0.0000000000000","OBJECT_NAME":"STARLINK-2417","SITE":"AFETR","SEMIMAJOR_AXIS":"6925.353","NORAD_CAT_ID":"48096","APOAPSIS":"548.216","PERIOD":"95.592","EPHEMERIS_TYPE":"0","REV_AT_EPOCH":"5343","MEAN_MOTION_DOT":"0.00005925","EPOCH":"2022-03-17T19:37:38.111808","GP_ID":"198992979","OBJECT_TYPE":"PAYLOAD","CENTER_NAME":"EARTH","DECAY_DATE":null,"OBJECT_ID":"2021-027E","MEAN_ELEMENT_THEORY":"SGP4","CLASSIFICATION_TYPE":"U","INCLINATION":"53.0525","MEAN_MOTION":"15.06398597","ELEMENT_SET_NO":"999","TLE_LINE1":"1 48096U 21027E   22076.81780222  .00005925  00000-0  41632-3 0  9996","REF_FRAME":"TEME","TLE_LINE2":"2 48096  53.0525 213.8230 0001441  66.7130 293.4011 15.06398597 53439","LAUNCH_DATE":"2021-04-07","TIME_SYSTEM":"UTC","RCS_SIZE":"LARGE"},{"MEAN_MOTION_DOT":"0.00015947","EPOCH":"2022-03-17T17:32:56.323680","GP_ID":"198991227","REV_AT_EPOCH":"5370","PERIOD":"95.594","EPHEMERIS_TYPE":"0","SEMIMAJOR_AXIS":"6925.418","NORAD_CAT_ID":"48097","APOAPSIS":"548.174","SITE":"AFETR","MEAN_MOTION_DDOT":"0.0000000000000","OBJECT_NAME":"STARLINK-2418","COUNTRY_CODE":"US","ARG_OF_PERICENTER":"85.6314","RA_OF_ASC_NODE":"194.2124","FILE":"3363151","MEAN_ANOMALY":"274.4822","ECCENTRICITY":"0.00012860","BSTAR":"0.00108770000000","PERIAPSIS":"546.393","TIME_SYSTEM":"UTC","RCS_SIZE":"LARGE","TLE_LINE2":"2 48097  53.0553 194.2124 0001286  85.6314 274.4822 15.06377181 53701","LAUNCH_DATE":"2021-04-07","INCLINATION":"53.0553","MEAN_MOTION":"15.06377181","ELEMENT_SET_NO":"999","REF_FRAME":"TEME","TLE_LINE1":"1 48097U 21027F   22076.73120745  .00015947  00000-0  10877-2 0  9997","MEAN_ELEMENT_THEORY":"SGP4","CLASSIFICATION_TYPE":"U","DECAY_DATE":null,"OBJECT_ID":"2021-027F","CENTER_NAME":"EARTH","OBJECT_TYPE":"PAYLOAD"},{"OBJECT_ID":"2021-027G","DECAY_DATE":null,"MEAN_ELEMENT_THEORY":"SGP4","CLASSIFICATION_TYPE":"U","OBJECT_TYPE":"PAYLOAD","CENTER_NAME":"EARTH","TLE_LINE2":"2 48098  53.0544 204.3163 0001472  77.1076 283.0077 15.06402419 53550","LAUNCH_DATE":"2021-04-07","TIME_SYSTEM":"UTC","RCS_SIZE":"LARGE","INCLINATION":"53.0544","MEAN_MOTION":"15.06402419","ELEMENT_SET_NO":"999","TLE_LINE1":"1 48098U 21027G   22076.70814045  .00003029  00000-0  22217-3 0  9998","REF_FRAME":"TEME","MEAN_MOTION_DDOT":"0.0000000000000","OBJECT_NAME":"STARLINK-2421","SITE":"AFETR","ECCENTRICITY":"0.00014720","BSTAR":"0.00022217000000","PERIAPSIS":"546.187","COUNTRY_CODE":"US","ARG_OF_PERICENTER":"77.1076","RA_OF_ASC_NODE":"204.3163","FILE":"3363151","MEAN_ANOMALY":"283.0077","REV_AT_EPOCH":"5355","MEAN_MOTION_DOT":"0.00003029","EPOCH":"2022-03-17T16:59:43.334880","GP_ID":"198991477","SEMIMAJOR_AXIS":"6925.341","NORAD_CAT_ID":"48098","APOAPSIS":"548.226","PERIOD":"95.592","EPHEMERIS_TYPE":"0"},{"SEMIMAJOR_AXIS":"6925.409","NORAD_CAT_ID":"48099","APOAPSIS":"548.216","PERIOD":"95.593","EPHEMERIS_TYPE":"0","REV_AT_EPOCH":"5341","EPOCH":"2022-03-17T16:42:28.070208","MEAN_MOTION_DOT":"0.00000437","GP_ID":"198992729","PERIAPSIS":"546.333","ECCENTRICITY":"0.00013590","BSTAR":"0.00004828400000","ARG_OF_PERICENTER":"69.4405","COUNTRY_CODE":"US","RA_OF_ASC_NODE":"214.3632","MEAN_ANOMALY":"290.6729","FILE":"3363151","OBJECT_NAME":"STARLINK-2428","MEAN_MOTION_DDOT":"0.0000000000000","SITE":"AFETR","MEAN_MOTION":"15.06380137","INCLINATION":"53.0558","TLE_LINE1":"1 48099U 21027H   22076.69615822  .00000437  00000-0  48284-4 0  9992","REF_FRAME":"TEME","ELEMENT_SET_NO":"999","LAUNCH_DATE":"2021-04-07","TLE_LINE2":"2 48099  53.0558 214.3632 0001359  69.4405 290.6729 15.06380137 53417","TIME_SYSTEM":"UTC","RCS_SIZE":"LARGE","OBJECT_TYPE":"PAYLOAD","CENTER_NAME":"EARTH","OBJECT_ID":"2021-027H","DECAY_DATE":null,"CLASSIFICATION_TYPE":"U","MEAN_ELEMENT_THEORY":"SGP4"},{"GP_ID":"198966823","EPOCH":"2022-03-17T14:11:13.155072","MEAN_MOTION_DOT":"0.00002431","REV_AT_EPOCH":"5368","EPHEMERIS_TYPE":"0","PERIOD":"95.593","APOAPSIS":"548.263","NORAD_CAT_ID":"48100","SEMIMAJOR_AXIS":"6925.413","SITE":"AFETR","OBJECT_NAME":"STARLINK-2430","MEAN_MOTION_DDOT":"0.0000000000000","MEAN_ANOMALY":"286.5991","FILE":"3363104","ARG_OF_PERICENTER":"73.5154","COUNTRY_CODE":"US","RA_OF_ASC_NODE":"194.8367","PERIAPSIS":"546.294","BSTAR":"0.00018217000000","ECCENTRICITY":"0.00014220","RCS_SIZE":"MEDIUM","TIME_SYSTEM":"UTC","LAUNCH_DATE":"2021-04-07","TLE_LINE2":"2 48100  53.0540 194.8367 0001422  73.5154 286.5991 15.06378829 53685","TLE_LINE1":"1 48100U 21027J   22076.59112448  .00002431  00000-0  18217-3 0  9998","REF_FRAME":"TEME","ELEMENT_SET_NO":"999","MEAN_MOTION":"15.06378829","INCLINATION":"53.0540","CLASSIFICATION_TYPE":"U","MEAN_ELEMENT_THEORY":"SGP4","OBJECT_ID":"2021-027J","DECAY_DATE":null,"CENTER_NAME":"EARTH","OBJECT_TYPE":"PAYLOAD"},{"SEMIMAJOR_AXIS":"6925.401","NORAD_CAT_ID":"48101","APOAPSIS":"548.261","PERIOD":"95.593","EPHEMERIS_TYPE":"0","REV_AT_EPOCH":"5355","EPOCH":"2022-03-17T15:22:50.375712","MEAN_MOTION_DOT":"-0.00000714","GP_ID":"198991728","PERIAPSIS":"546.270","ECCENTRICITY":"0.00014370","BSTAR":"-0.00002902600000","ARG_OF_PERICENTER":"68.5233","COUNTRY_CODE":"US","RA_OF_ASC_NODE":"204.6144","MEAN_ANOMALY":"291.5910","FILE":"3363151","OBJECT_NAME":"STARLINK-2436","MEAN_MOTION_DDOT":"0.0000000000000","SITE":"AFETR","INCLINATION":"53.0543","MEAN_MOTION":"15.06383017","REF_FRAME":"TEME","TLE_LINE1":"1 48101U 21027K   22076.64086083 -.00000714  00000-0 -29026-4 0  9995","ELEMENT_SET_NO":"999","LAUNCH_DATE":"2021-04-07","TLE_LINE2":"2 48101  53.0543 204.6144 0001437  68.5233 291.5910 15.06383017 53558","TIME_SYSTEM":"UTC","RCS_SIZE":"LARGE","OBJECT_TYPE":"PAYLOAD","CENTER_NAME":"EARTH","OBJECT_ID":"2021-027K","DECAY_DATE":null,"CLASSIFICATION_TYPE":"U","MEAN_ELEMENT_THEORY":"SGP4"},{"OBJECT_NAME":"STARLINK-2437","MEAN_MOTION_DDOT":"0.0000000000000","SITE":"AFETR","PERIAPSIS":"546.307","ECCENTRICITY":"0.00013170","BSTAR":"0.00134050000000","MEAN_ANOMALY":"294.8699","FILE":"3363151","ARG_OF_PERICENTER":"65.2427","COUNTRY_CODE":"US","RA_OF_ASC_NODE":"194.4163","REV_AT_EPOCH":"5369","GP_ID":"198991978","EPOCH":"2022-03-17T16:23:55.122432","MEAN_MOTION_DOT":"0.00019741","APOAPSIS":"548.131","SEMIMAJOR_AXIS":"6925.354","NORAD_CAT_ID":"48102","EPHEMERIS_TYPE":"0","PERIOD":"95.592","OBJECT_ID":"2021-027L","DECAY_DATE":null,"CLASSIFICATION_TYPE":"U","MEAN_ELEMENT_THEORY":"SGP4","OBJECT_TYPE":"PAYLOAD","CENTER_NAME":"EARTH","LAUNCH_DATE":"2021-04-07","TLE_LINE2":"2 48102  53.0554 194.4163 0001317  65.2427 294.8699 15.06398181 53697","RCS_SIZE":"LARGE","TIME_SYSTEM":"UTC","REF_FRAME":"TEME","TLE_LINE1":"1 48102U 21027L   22076.68327688  .00019741  00000-0  13405-2 0  9999","ELEMENT_SET_NO":"999","MEAN_MOTION":"15.06398181","INCLINATION":"53.0554"},{"LAUNCH_DATE":"2021-04-07","TLE_LINE2":"2 48103  53.0542 194.3714 0001669  66.5509 293.5656 15.06396174 53690","TIME_SYSTEM":"UTC","RCS_SIZE":"LARGE","INCLINATION":"53.0542","MEAN_MOTION":"15.06396174","REF_FRAME":"TEME","TLE_LINE1":"1 48103U 21027M   22076.69064387 -.00001401  00000-0 -75157-4 0  9995","ELEMENT_SET_NO":"999","OBJECT_ID":"2021-027M","DECAY_DATE":null,"CLASSIFICATION_TYPE":"U","MEAN_ELEMENT_THEORY":"SGP4","OBJECT_TYPE":"PAYLOAD","CENTER_NAME":"EARTH","REV_AT_EPOCH":"5369","EPOCH":"2022-03-17T16:34:31.630368","MEAN_MOTION_DOT":"-0.00001401","GP_ID":"198992229","SEMIMAJOR_AXIS":"6925.360","NORAD_CAT_ID":"48103","APOAPSIS":"548.381","PERIOD":"95.592","EPHEMERIS_TYPE":"0","OBJECT_NAME":"STARLINK-2438","MEAN_MOTION_DDOT":"0.0000000000000","SITE":"AFETR","PERIAPSIS":"546.069","ECCENTRICITY":"0.00016690","BSTAR":"-0.00007515700000","COUNTRY_CODE":"US","RA_OF_ASC_NODE":"194.3714","ARG_OF_PERICENTER":"66.5509","MEAN_ANOMALY":"293.5656","FILE":"3363151"},{"OBJECT_TYPE":"PAYLOAD","CENTER_NAME":"EARTH","OBJECT_ID":"2021-027N","DECAY_DATE":null,"CLASSIFICATION_TYPE":"U","MEAN_ELEMENT_THEORY":"SGP4","TLE_LINE1":"1 48104U 21027N   22076.57038832  .00003814  00000-0  27489-3 0  9991","REF_FRAME":"TEME","ELEMENT_SET_NO":"999","MEAN_MOTION":"15.06388537","INCLINATION":"53.0537","LAUNCH_DATE":"2021-04-07","TLE_LINE2":"2 48104  53.0537 199.9397 0001228  79.0198 281.0929 15.06388537 53618","RCS_SIZE":"LARGE","TIME_SYSTEM":"UTC","PERIAPSIS":"546.398","BSTAR":"0.00027489000000","ECCENTRICITY":"0.00012280","MEAN_ANOMALY":"281.0929","FILE":"3363104","COUNTRY_CODE":"US","ARG_OF_PERICENTER":"79.0198","RA_OF_ASC_NODE":"199.9397","OBJECT_NAME":"STARLINK-2439","MEAN_MOTION_DDOT":"0.0000000000000","SITE":"AFETR","APOAPSIS":"548.099","SEMIMAJOR_AXIS":"6925.384","NORAD_CAT_ID":"48104","EPHEMERIS_TYPE":"0","PERIOD":"95.593","REV_AT_EPOCH":"5361","GP_ID":"198966324","EPOCH":"2022-03-17T13:41:21.550848","MEAN_MOTION_DOT":"0.00003814"},{"MEAN_MOTION":"15.06394149","INCLINATION":"53.0557","TLE_LINE1":"1 48105U 21027P   22076.61048736  .00020848  00000-0  14146-2 0  9992","REF_FRAME":"TEME","ELEMENT_SET_NO":"999","TIME_SYSTEM":"UTC","RCS_SIZE":"LARGE","LAUNCH_DATE":"2021-04-07","TLE_LINE2":"2 48105  53.0557 144.7474 0001634  49.4375 310.6756 15.06394149 54382","CENTER_NAME":"EARTH","OBJECT_TYPE":"PAYLOAD","CLASSIFICATION_TYPE":"U","MEAN_ELEMENT_THEORY":"SGP4","DECAY_DATE":null,"OBJECT_ID":"2021-027P","PERIOD":"95.593","EPHEMERIS_TYPE":"0","SEMIMAJOR_AXIS":"6925.366","NORAD_CAT_ID":"48105","APOAPSIS":"548.363","EPOCH":"2022-03-17T14:39:06.107904","MEAN_MOTION_DOT":"0.00020848","GP_ID":"198991228","REV_AT_EPOCH":"5438","COUNTRY_CODE":"US","ARG_OF_PERICENTER":"49.4375","RA_OF_ASC_NODE":"144.7474","MEAN_ANOMALY":"310.6756","FILE":"3363151","PERIAPSIS":"546.100","ECCENTRICITY":"0.00016340","BSTAR":"0.00141460000000","SITE":"AFETR","OBJECT_NAME":"STARLINK-2440","MEAN_MOTION_DDOT":"0.0000000000000"}];
